address,city,state,zip
110 N Colonial Dr,Harrington Park,NJ,07640
24 N Colonial Dr,Harrington Park,NJ,07640
86 S Colonial Dr,Harrington Park,NJ,07640
111 S Colonial Dr,Harrington Park,NJ,07640
61 Dorotockey Dr,Harrington Park,NJ,07640
70 Dorotockey Dr,Harrington Park,NJ,07640
36 Herron Ct,Harrington Park,NJ,07640
24 Herron Ct,Harrington Park,NJ,07640
33 Herron Ct,Harrington Park,NJ,07640
35 Burkhardt Ln,Harrington Park,NJ,07640
27 Higgins Pl,Harrington Park,NJ,07640
65 Higgins Pl,Harrington Park,NJ,07640
45 Flint Terrace,Harrington Park,NJ,07640
25 Pondside Ct,Harrington Park,NJ,07640
560 Lynn St,Harrington Park,NJ,07640
48 Lee Ave,Harrington Park,NJ,07640
7 Jay St,Harrington Park,NJ,07640
38 Sandra Pl,Harrington Park,NJ,07640
14 Bluefield Ave,Harrington Park,NJ,07640
2 Amelia Ct,Harrington Park,NJ,07640
9 Sandra Pl,Harrington Park,NJ,07640
17 Stella Ct,Harrington Park,NJ,07640
85 Riverview Dr,Harrington Park,NJ,07640
62 Riverview Dr,Harrington Park,NJ,07640
26 Oak St,Harrington Park,NJ,07640
16 Cooper Pl,Harrington Park,NJ,07640
67 Friend Terrace,Harrington Park,NJ,07640
43 Manor Rd,Harrington Park,NJ,07640
3 Friend Terrace,Harrington Park,NJ,07640
40 Friend Terrace,Harrington Park,NJ,07640
34 Friend Terrace,Harrington Park,NJ,07640
181 Brook St,Harrington Park,NJ,07640
76 Blauvelt Dr,Harrington Park,NJ,07640
60 Blauvelt Dr,Harrington Park,NJ,07640
47 Blauvelt Dr,Harrington Park,NJ,07640
30 Riker Ave,Harrington Park,NJ,07640
51 Hackensack Ave,Harrington Park,NJ,07640
300 Lynn St,Harrington Park,NJ,07640
46 Deal St,Harrington Park,NJ,07640
10 Eastbrook Rd,Harrington Park,NJ,07640
11 Eastbrook Rd,Harrington Park,NJ,07640
1 Eastbrook Rd,Harrington Park,NJ,07640
58 George St,Harrington Park,NJ,07640
234 Martha Rd,Harrington Park,NJ,07640
224 Florence Rd,Harrington Park,NJ,07640
74 Florence Rd,Harrington Park,NJ,07640
64 Florence Rd,Harrington Park,NJ,07640
331 Parkside Rd,Harrington Park,NJ,07640
92 Norma Rd,Harrington Park,NJ,07640
24 Florence Rd,Harrington Park,NJ,07640
100 Martha Rd,Harrington Park,NJ,07640
15 Elliott Rd,Harrington Park,NJ,07640
24 Carman Rd,Harrington Park,NJ,07640
19 Elm St,Harrington Park,NJ,07640
148 Schraalenburgh Rd,Harrington Park,NJ,07640
2 La Roche Ave,Harrington Park,NJ,07640
51 Carman Rd,Harrington Park,NJ 07640,United States
52 Deal St,Harrington Park,NJ,07640
242 Brook St,Harrington Park,NJ,07640
